SL-3 R/B                
1 19046U 88032B   18350.93785053 -.00000592  00000-0 -39493-4 0  9998
2 19046  97.4567  24.6370 0036100 273.3298  86.3798 15.02500043654596
SL-16 R/B               
1 19120U 88039B   18350.89589905 -.00000007  00000-0  19425-4 0  9994
2 19120  71.0141 247.6275 0019775  66.0815 294.2378 14.19194400584091
COSMOS 1953             
1 19210U 88050A   18350.89879498 -.00000125  00000-0 -10676-4 0  9997
2 19210  82.5169 222.1581 0013168 183.8005 176.3125 15.05679224639117
SL-8 R/B                
1 19257U 88053B   18350.95476641 -.00000013  00000-0  44492-5 0  9990
2 19257  74.0495 289.4732 0019482  41.8882  24.9408 14.37421879597199
COSMOS 1975             
1 19573U 88093A   18350.94193411  .00000513  00000-0  34469-4 0  9991
2 19573  82.5192 175.3444 0013296 229.5017 130.5052 15.04592584621029
SL-14 R/B               
1 19574U 88093B   18351.53750051  .00000080  00000-0  67874-5 0  9993
2 19574  82.5311 352.3725 0023148 107.4553   9.6523 14.83283887630734
SL-16 R/B               
1 19650U 88102B   18350.93191785 -.00000146  00000-0 -50219-4 0  9994
2 19650  70.9997 303.3241 0012071  65.5440 294.6941 14.15774451553248
INTERCOSMOS 24          
1 20261U 89080A   18351.16224259  .00000077  00000-0  22692-4 0  9994
2 20261  82.6013  15.0812 1202275 272.9326  73.5130 12.56021718334754
SL-14 R/B               
1 20262U 89080C   18351.55177801  .00000033  00000-0 -73043-7 0  9990
2 20262  82.5957  64.8757 1237791  86.3703 287.7746 12.48908630330170
DELTA 1 R/B             
1 20323U 89089B   18350.66547218 -.00000015  00000-0  50280-5 0  9997
2 20323  97.0862 215.3180 0072291 157.6525 202.7849 14.48282008533961
DELTA 2 R/B(1)          
1 20453U 90008B   18350.93873347  .00001188  00000-0  70575-4 0  9998
2 20453  35.6238 248.3230 0283551  49.3610 313.1398 14.84563317529615
COSMOS 2058             
1 20465U 90010A   18350.80883025  .00000257  00000-0  19573-4 0  9991
2 20465  82.4906  81.2057 0014087 247.3836 112.5897 14.97806067546190
SL-14 R/B               
1 20466U 90010B   18351.13048548  .00000066  00000-0  54703-5 0  9995
2 20466  82.5035 219.8887 0020073 342.8897  17.1637 14.81341885558612
SL-14 R/B               
1 20511U 90018B   18351.56399049  .00000053  00000-0  39208-5 0  9995
2 20511  82.5217 163.4253 0018881 112.9889 307.7571 14.79998841553175
HST                     
1 20580U 90037B   18351.21224391  .00000436  00000-0  15687-4 0  9990
2 20580  28.4706 345.1139 0002468 314.1171 336.3212 15.09145669373142
SL-16 R/B               
1 20625U 90046B   18350.79465509  .00000256  00000-0  15799-3 0  9993
2 20625  70.9998  79.7989 0014541 347.0003  13.0742 14.14635643475022
COSMOS 2084             
1 20663U 90055A   18350.94750293 -.00000046  00000-0  14235-4 0  9992
2 20663  62.7920 199.4750 0102202 145.6088 215.1678 14.91917631541517
SL-6 R/B(2)             
1 20666U 90055D   18351.56525284 -.00000011  00000-0  17275-4 0  9993
2 20666  62.7857 115.0005 0069835 169.8739 190.3782 14.92198963543007
SL-8 R/B                
1 20775U 90078B   18351.05704870  .00000755  00000-0  34044-4 0  9990
2 20775  82.9274 318.2815 0581833  91.5530 275.2353 14.32709453427169
SL-8 R/B                
1 21088U 91006B   18350.97546145  .00000119  00000-0  10466-3 0  9994
2 21088  82.9413 332.9995 0021478 224.3253 187.9949 13.77104572400728
OKEAN-3                 
1 21397U 91039A   18351.49185146  .00000207  00000-0  17448-4 0  9997
2 21397  82.5209 337.4708 0017317 198.4907 161.5686 14.92745698491573
COSMOS 2151             
1 21422U 91042A   18350.81907746  .00000120  00000-0  93662-5 0  9990
2 21422  82.5016  85.2439 0012698 264.8081  95.1689 14.92004980490155
SL-14 R/B               
1 21423U 91042B   18350.93252315  .00000068  00000-0  59673-5 0  9994
2 21423  82.4926 169.5436 0016167 255.0985 104.8437 14.79749974462543
ERS-1                   
1 21574U 91050A   18351.49468802  .00000016  00000-0  19866-4 0  9994
2 21574  98.5273 297.0170 0033936 118.0251 242.4375 14.37673601436371
ARIANE 40 R/B           
1 21610U 91050F   18351.29788792 -.00000019  00000-0  78456-5 0  9991
2 21610  98.5341  53.9245 0004323 102.4087 304.5382 14.40858682439045
INTERCOSMOS 25          
1 21819U 91086A   18350.87050074 -.00000417  00000-0 -88404-4 0  9995
2 21819  82.5938  94.7367 1517419   0.7720 359.5218 12.04960319178215
SL-14 R/B               
1 21820U 91086B   18350.88618468  .00000171  00000-0  32301-4 0  9995
2 21820  82.5588 155.3730 1576229 210.6925 139.1977 11.93420900172110
SL-8 R/B                
1 21876U 92008B   18350.83044677  .00000027  00000-0  12326-4 0  9996
2 21876  82.9283  70.1897 0033579 306.6643 192.6956 13.75628198346679
SL-8 R/B                
1 21938U 92020B   18350.97109557 -.00000017  00000-0 -34052-4 0  9994
2 21938  82.9290 313.7733 0030545 103.1568 315.0687 13.75262866338283
SL-16 R/B               
1 22220U 92076B   18350.64803462 -.00000187  00000-0 -69894-4 0  9990
2 22220  70.9984 346.8457 0012315 169.4986 292.7061 14.16437481347964
SL-16 R/B               
1 22285U 92093B   18350.95288251  .00000086  00000-0  68981-4 0  9999
2 22285  71.0210 143.1899 0004433 342.0244  18.0721 14.15031940339743
COSMOS 2228             
1 22286U 92094A   18351.14615179  .00000162  00000-0  14837-4 0  9992
2 22286  82.5205 217.2438 0022632 101.2785 259.0977 14.87997205403974
SL-16 R/B               
1 22566U 93016B   18350.59663602 -.00000304  00000-0 -13242-3 0  9998
2 22566  71.0074 357.8618 0009781   6.1432 353.9808 14.14955953328691
COSMOS 2242             
1 22626U 93024A   18350.87001184  .00000158  00000-0  14509-4 0  9999
2 22626  82.5229 245.4014 0020456 101.5569 258.7947 14.87858695387283
SL-16 R/B               
1 22803U 93059B   18351.53019674 -.00000032  00000-0  81110-5 0  9996
2 22803  70.9876 173.9335 0019567 270.3678  89.5204 14.16803948305950
ARIANE 40 R/B           
1 22830U 93061H   18351.50109051  .00000059  00000-0  39680-4 0  9997
2 22830  98.8395  23.2384 0011786 123.8886 236.3419 14.31429330316682
COSMOS 2278             
1 23087U 94023A   18350.91298891 -.00000291  00000-0 -12864-3 0  9990
2 23087  71.0533 294.1853 0006332 103.7633 256.4195 14.13774735271666
SL-16 R/B               
1 23088U 94023B   18351.05726458 -.00000246  00000-0 -10309-3 0  9994
2 23088  70.9995 212.1502 0004706 316.3018  43.7732 14.14676409273026
SL-16 R/B               
1 23343U 94074B   18351.23108450  .00000017  00000-0  98457-5 0  9996
2 23343  98.0807  36.3932 0008158 110.7942 291.5361 14.76757161297719
SL-16 R/B               
1 23405U 94077B   18350.99516061 -.00000298  00000-0 -12849-3 0  9993
2 23405  70.9806 143.6297 0004427 238.0324 122.0368 14.15205138243019
ERS-2                   
1 23560U 95021A   18350.85621381  .00000690  00000-0  33887-4 0  9992
2 23560  98.5151  61.6870 0002554 228.7322 131.3691 15.22178022258635
ARIANE 40+ R/B          
1 23561U 95021B   18351.06174314  .00000013  00000-0  19555-4 0  9991
2 23561  98.7826   9.8675 0007917  80.7219 336.7874 14.37900632239989
SL-16 R/B               
1 23705U 95058B   18350.92177829 -.00000288  00000-0 -12399-3 0  9993
2 23705  71.0224 319.8382 0012924 194.6715 165.4035 14.15119538194376
SL-16 R/B               
1 24298U 96051B   18350.51608687 -.00000132  00000-0 -45116-4 0  9993
2 24298  70.8252 348.2014 0012813  93.1642 267.0944 14.12395534149118
ORBVIEW 2 (SEASTAR)     
1 24883U 97037A   18350.92561998  .00000029  00000-0  26338-4 0  9994
2 24883  98.5740  98.3119 0001270 296.0844  64.0210 14.33482845130126
SL-16 R/B               
1 25400U 98043G   18350.80108304 -.00000023  00000-0  82601-5 0  9994
2 25400  98.5539 288.5233 0010727 131.2296 228.9810 14.25435435 63087
SL-16 R/B               
1 25407U 98045B   18350.93096554 -.00000032  00000-0  81577-5 0  9991
2 25407  71.0112 330.3471 0005442  93.8372 266.3373 14.15777921 53440
ISS (ZARYA)             
1 25544U 98067A   18351.70144525 -.00000298  00000-0  27779-5 0  9993
2 25544  51.6392 184.1747 0005269 157.2510 326.5996 15.54073494147052
SL-8 R/B                
1 25723U 99022C   18350.79609432  .00006595  00000-0  78314-4 0  9990
2 25723  48.4139 109.1791 0007345 181.3115 178.7815 15.62383001 91902
CZ-4B R/B               
1 25732U 99025C   18350.94202045 -.00000013  00000-0  16145-4 0  9993
2 25732  98.9879   4.4147 0036925 334.0463  85.2755 14.17657689 14101
OKEAN-O                 
1 25860U 99039A   18351.51267306  .00000023  00000-0  10908-4 0  9996
2 25860  98.2242 350.4008 0001408 113.5921 246.5436 14.76580892 44744
SL-16 R/B               
1 25861U 99039B   18350.96180058  .00000019  00000-0  10040-4 0  9995
2 25861  98.1722 333.3224 0016848 117.5994 300.5000 14.78508588 46570
TERRA                   
1 25994U 99068A   18351.18774826 -.00000276  00000-0 -51325-4 0  9999
2 25994  98.2112  63.3733 0001243 105.8187 254.3125 14.57108842 10473
ENVISAT                 
1 27386U 02009A   18351.53395421 -.00000006  00000-0  11582-4 0  9995
2 27386  98.1665  16.7720 0001324  90.3211  27.4757 14.37936843879871
IDEFIX & ARIANE 42P R/B 
1 27422U 02021B   18351.52081406 -.00000014  00000-0  10554-4 0  9991
2 27422  98.2775 327.6963 0013243  54.8108 305.4313 14.29266718865006
AQUA                    
1 27424U 02022A   18351.14995554  .00000091  00000-0  30162-4 0  9991
2 27424  98.2149 289.6108 0000674 197.8759 223.0864 14.57105991884075
CZ-4B R/B               
1 27432U 02024C   18350.90550646 -.00000017  00000-0  15423-4 0  9996
2 27432  99.0536 334.6636 0049561 284.7185 136.2935 14.14073558856122
MIDORI II (ADEOS-II)    
1 27597U 02056A   18350.95887586  .00000031  00000-0  29846-4 0  9993
2 27597  98.4476 304.6301 0001677 119.3239 240.8110 14.27377659833568
H-2A R/B                
1 27601U 02056E   18351.26775154  .00000038  00000-0  28388-4 0  9998
2 27601  98.3042  42.9402 0073299 108.4441 299.0660 14.31869275836248
